[{"OBJECT_NAME":"LEMUR-2-AMANDA-SVANTE","OBJECT_ID":"2021-034B","EPOCH":"2026-03-09T18:37:58.823328","MEAN_MOTION":15.28469003,"ECCENTRICITY":0.00027027,"INCLINATION":97.5829,"RA_OF_ASC_NODE":144.8625,"ARG_OF_PERICENTER":205.4721,"MEAN_ANOMALY":154.6385,"EPHEMERIS_TYPE":0,"CLASSIFICATION_TYPE":"U","NORAD_CAT_ID":48269,"ELEMENT_SET_NO":999,"REV_AT_EPOCH":26584,"BSTAR":0.0011134246,"MEAN_MOTION_DOT":0.00030872,"MEAN_MOTION_DDOT":0},{"OBJECT_NAME":"STARLINK-30611","OBJECT_ID":"2023-161M","EPOCH":"2026-03-09T11:04:15.367872","MEAN_MOTION":15.30187351,"ECCENTRICITY":9.967e-5,"INCLINATION":53.1599,"RA_OF_ASC_NODE":153.817,"ARG_OF_PERICENTER":118.8201,"MEAN_ANOMALY":241.29,"EPHEMERIS_TYPE":0,"CLASSIFICATION_TYPE":"U","NORAD_CAT_ID":58108,"ELEMENT_SET_NO":999,"REV_AT_EPOCH":13456,"BSTAR":-1.7308325e-5,"MEAN_MOTION_DOT":-8.71e-6,"MEAN_MOTION_DDOT":0}]
